<?xml version="1.0" encoding="UTF-8"?>
<gpx version="1.1" creator="EasyGPSMock" xmlns="http://www.topografix.com/GPX/1/1">
  <rte>
    <name>巴黎剪刀麵包路線</name>
    <type>純點/地圖</type>
    <rtept lat="48.86624" lon="2.33379"/>
    <rtept lat="48.86674" lon="2.33374"/>
    <rtept lat="48.86692" lon="2.3332"/>
    <rtept lat="48.86742" lon="2.33274"/>
    <rtept lat="48.86757" lon="2.3332"/>
    <rtept lat="48.86812" lon="2.33069"/>
    <rtept lat="48.86805" lon="2.331"/>
    <rtept lat="48.86603" lon="2.33144"/>
    <rtept lat="48.86594" lon="2.3318"/>
    <rtept lat="48.86507" lon="2.33184"/>
    <rtept lat="48.86499" lon="2.33282"/>
    <rtept lat="48.86408" lon="2.33217"/>
    <rtept lat="48.86401" lon="2.33246"/>
    <rtept lat="48.86417" lon="2.33375"/>
    <rtept lat="48.86411" lon="2.3339"/>
    <rtept lat="48.86427" lon="2.33478"/>
    <rtept lat="48.86398" lon="2.33581"/>
    <rtept lat="48.86316" lon="2.33525"/>
    <rtept lat="48.863" lon="2.33474"/>
    <rtept lat="48.86305" lon="2.33468"/>
    <rtept lat="48.8634" lon="2.33414"/>
    <rtept lat="48.86359" lon="2.33428"/>
    <rtept lat="48.86358" lon="2.33449"/>
    <rtept lat="48.86384" lon="2.33449"/>
    <rtept lat="48.86366" lon="2.33391"/>
    <rtept lat="48.86195" lon="2.33251"/>
    <rtept lat="48.86188" lon="2.33447"/>
    <rtept lat="48.86153" lon="2.33453"/>
    <rtept lat="48.86067" lon="2.33449"/>
    <rtept lat="48.86124" lon="2.33538"/>
    <rtept lat="48.86116" lon="2.33546"/>
    <rtept lat="48.86133" lon="2.33582"/>
    <rtept lat="48.86142" lon="2.33577"/>
    <rtept lat="48.86157" lon="2.33622"/>
    <rtept lat="48.86071" lon="2.341"/>
    <rtept lat="48.86065" lon="2.3436"/>
    <rtept lat="48.86076" lon="2.34367"/>
    <rtept lat="48.86073" lon="2.34445"/>
    <rtept lat="48.86108" lon="2.34435"/>
    <rtept lat="48.86112" lon="2.34413"/>
    <rtept lat="48.8614" lon="2.34403"/>
    <rtept lat="48.86129" lon="2.34369"/>
    <rtept lat="48.86135" lon="2.34337"/>
    <rtept lat="48.86122" lon="2.34261"/>
    <rtept lat="48.86153" lon="2.34167"/>
    <rtept lat="48.86236" lon="2.3414"/>
    <rtept lat="48.86209" lon="2.34126"/>
    <rtept lat="48.86207" lon="2.34097"/>
    <rtept lat="48.86184" lon="2.34096"/>
    <rtept lat="48.86205" lon="2.34007"/>
    <rtept lat="48.86221" lon="2.34008"/>
    <rtept lat="48.86228" lon="2.33943"/>
    <rtept lat="48.86274" lon="2.33958"/>
    <rtept lat="48.86302" lon="2.3398"/>
    <rtept lat="48.86391" lon="2.34014"/>
    <rtept lat="48.86298" lon="2.34127"/>
    <rtept lat="48.86409" lon="2.34165"/>
    <rtept lat="48.8643" lon="2.34124"/>
    <rtept lat="48.86438" lon="2.34138"/>
    <rtept lat="48.8645" lon="2.34117"/>
    <rtept lat="48.86527" lon="2.34056"/>
    <rtept lat="48.8654" lon="2.34047"/>
    <rtept lat="48.86484" lon="2.34607"/>
    <rtept lat="48.86428" lon="2.34652"/>
    <rtept lat="48.86384" lon="2.3474"/>
    <rtept lat="48.86375" lon="2.34738"/>
    <rtept lat="48.8637" lon="2.34781"/>
    <rtept lat="48.86375" lon="2.34805"/>
    <rtept lat="48.86365" lon="2.34948"/>
    <rtept lat="48.86357" lon="2.34981"/>
    <rtept lat="48.86406" lon="2.35045"/>
    <rtept lat="48.8641" lon="2.35107"/>
    <rtept lat="48.86439" lon="2.3526"/>
    <rtept lat="48.86416" lon="2.35311"/>
    <rtept lat="48.86409" lon="2.35357"/>
    <rtept lat="48.86411" lon="2.35378"/>
    <rtept lat="48.86459" lon="2.35393"/>
    <rtept lat="48.86439" lon="2.35493"/>
    <rtept lat="48.86427" lon="2.35496"/>
    <rtept lat="48.86486" lon="2.355"/>
    <rtept lat="48.86476" lon="2.35589"/>
    <rtept lat="48.8647" lon="2.35625"/>
    <rtept lat="48.86475" lon="2.35682"/>
    <rtept lat="48.86565" lon="2.35627"/>
    <rtept lat="48.86542" lon="2.35687"/>
    <rtept lat="48.86591" lon="2.35749"/>
    <rtept lat="48.86647" lon="2.35781"/>
    <rtept lat="48.86638" lon="2.35959"/>
    <rtept lat="48.86665" lon="2.36003"/>
    <rtept lat="48.86669" lon="2.36098"/>
    <rtept lat="48.8668" lon="2.36136"/>
    <rtept lat="48.86731" lon="2.35982"/>
    <rtept lat="48.86689" lon="2.35883"/>
    <rtept lat="48.86754" lon="2.3582"/>
    <rtept lat="48.86764" lon="2.35751"/>
    <rtept lat="48.86771" lon="2.35514"/>
    <rtept lat="48.86628" lon="2.35373"/>
    <rtept lat="48.86665" lon="2.3521"/>
    <rtept lat="48.86751" lon="2.35149"/>
    <rtept lat="48.86714" lon="2.35155"/>
    <rtept lat="48.86676" lon="2.35149"/>
    <rtept lat="48.86639" lon="2.35137"/>
    <rtept lat="48.8664" lon="2.35118"/>
    <rtept lat="48.86631" lon="2.35111"/>
    <rtept lat="48.86624" lon="2.35079"/>
    <rtept lat="48.86566" lon="2.35046"/>
    <rtept lat="48.86468" lon="2.35033"/>
    <rtept lat="48.86441" lon="2.35001"/>
    <rtept lat="48.8644" lon="2.34955"/>
    <rtept lat="48.8646" lon="2.34906"/>
    <rtept lat="48.86462" lon="2.34845"/>
    <rtept lat="48.86478" lon="2.34813"/>
    <rtept lat="48.86506" lon="2.3479"/>
    <rtept lat="48.86551" lon="2.34765"/>
    <rtept lat="48.86547" lon="2.34821"/>
    <rtept lat="48.86525" lon="2.34682"/>
    <rtept lat="48.86552" lon="2.34654"/>
    <rtept lat="48.86578" lon="2.34692"/>
    <rtept lat="48.86601" lon="2.34859"/>
    <rtept lat="48.8662" lon="2.34809"/>
    <rtept lat="48.86615" lon="2.34736"/>
    <rtept lat="48.86622" lon="2.34725"/>
    <rtept lat="48.86649" lon="2.3473"/>
    <rtept lat="48.86707" lon="2.3474"/>
    <rtept lat="48.8678" lon="2.34816"/>
    <rtept lat="48.8671" lon="2.34423"/>
    <rtept lat="48.86699" lon="2.34429"/>
    <rtept lat="48.86693" lon="2.34447"/>
    <rtept lat="48.86682" lon="2.34441"/>
    <rtept lat="48.86676" lon="2.34493"/>
    <rtept lat="48.86572" lon="2.34486"/>
    <rtept lat="48.86589" lon="2.34448"/>
    <rtept lat="48.86612" lon="2.34415"/>
    <rtept lat="48.86635" lon="2.34432"/>
    <rtept lat="48.86551" lon="2.34263"/>
    <rtept lat="48.86607" lon="2.34187"/>
    <rtept lat="48.86622" lon="2.34122"/>
    <rtept lat="48.86615" lon="2.34068"/>
    <rtept lat="48.86596" lon="2.33998"/>
    <rtept lat="48.86617" lon="2.33909"/>
    <rtept lat="48.86594" lon="2.3371"/>
    <rtept lat="48.86598" lon="2.33712"/>
    <rtept lat="48.86607" lon="2.33734"/>
    <rtept lat="48.86615" lon="2.33721"/>
    <rtept lat="48.86674" lon="2.33664"/>
    <rtept lat="48.86677" lon="2.33649"/>
    <rtept lat="48.8668" lon="2.33639"/>
    <rtept lat="48.86681" lon="2.33632"/>
    <rtept lat="48.86615" lon="2.33636"/>
    <rtept lat="48.86629" lon="2.3361"/>
    <rtept lat="48.86632" lon="2.33603"/>
    <rtept lat="48.86612" lon="2.33556"/>
    <rtept lat="48.86604" lon="2.33577"/>
    <rtept lat="48.86594" lon="2.33595"/>
    <rtept lat="48.86579" lon="2.33621"/>
    <rtept lat="48.86551" lon="2.33639"/>
    <rtept lat="48.86541" lon="2.33683"/>
    <rtept lat="48.86532" lon="2.33657"/>
    <rtept lat="48.86528" lon="2.33654"/>
    <rtept lat="48.86519" lon="2.33653"/>
    <rtept lat="48.86509" lon="2.33666"/>
    <rtept lat="48.86515" lon="2.33439"/>
    <rtept lat="48.86512" lon="2.33404"/>
    <rtept lat="48.86624" lon="2.33379"/>
  </rte>
</gpx>