<?xml version="1.0" encoding="UTF-8"?>
<gpx version="1.1" creator="EasyGPSMock" xmlns="http://www.topografix.com/GPX/1/1">
  <rte>
    <name>超市，沃爾瑪，美國</name>
    <type>逛街種花</type>
    <rtept lat="42.693268" lon="-73.847487"/>
    <rtept lat="42.693384" lon="-73.846998"/>
    <rtept lat="42.693508" lon="-73.847031"/>
    <rtept lat="42.693408" lon="-73.847525"/>
    <rtept lat="42.693552" lon="-73.84757"/>
    <rtept lat="42.693659" lon="-73.847091"/>
    <rtept lat="42.693784" lon="-73.847108"/>
    <rtept lat="42.693691" lon="-73.847609"/>
    <rtept lat="42.693632" lon="-73.848379"/>
    <rtept lat="42.693728" lon="-73.848414"/>
    <rtept lat="42.693792" lon="-73.847627"/>
    <rtept lat="42.693878" lon="-73.847131"/>
    <rtept lat="42.693959" lon="-73.84715"/>
    <rtept lat="42.693888" lon="-73.847647"/>
    <rtept lat="42.693832" lon="-73.848471"/>
    <rtept lat="42.693916" lon="-73.848492"/>
    <rtept lat="42.693979" lon="-73.847648"/>
    <rtept lat="42.69406" lon="-73.847178"/>
    <rtept lat="42.694143" lon="-73.847219"/>
    <rtept lat="42.694073" lon="-73.847699"/>
    <rtept lat="42.694008" lon="-73.848536"/>
    <rtept lat="42.694121" lon="-73.848579"/>
    <rtept lat="42.694165" lon="-73.847733"/>
    <rtept lat="42.694398" lon="-73.846142"/>
    <rtept lat="42.694219" lon="-73.846088"/>
    <rtept lat="42.694028" lon="-73.845619"/>
    <rtept lat="42.693695" lon="-73.845022"/>
    <rtept lat="42.693698" lon="-73.844912"/>
    <rtept lat="42.694265" lon="-73.846002"/>
    <rtept lat="42.69441" lon="-73.846045"/>
    <rtept lat="42.694427" lon="-73.845912"/>
    <rtept lat="42.694293" lon="-73.845886"/>
    <rtept lat="42.69375" lon="-73.844858"/>
    <rtept lat="42.693776" lon="-73.844774"/>
    <rtept lat="42.694315" lon="-73.845771"/>
    <rtept lat="42.694446" lon="-73.845808"/>
    <rtept lat="42.694466" lon="-73.845715"/>
    <rtept lat="42.694336" lon="-73.845658"/>
    <rtept lat="42.693854" lon="-73.844765"/>
    <rtept lat="42.693947" lon="-73.844773"/>
    <rtept lat="42.694339" lon="-73.845547"/>
    <rtept lat="42.694478" lon="-73.845597"/>
    <rtept lat="42.694494" lon="-73.845487"/>
    <rtept lat="42.694353" lon="-73.845424"/>
    <rtept lat="42.694031" lon="-73.844804"/>
    <rtept lat="42.694121" lon="-73.84482"/>
    <rtept lat="42.694373" lon="-73.845321"/>
    <rtept lat="42.694508" lon="-73.845357"/>
    <rtept lat="42.69453" lon="-73.845252"/>
    <rtept lat="42.694405" lon="-73.845197"/>
    <rtept lat="42.694228" lon="-73.844834"/>
    <rtept lat="42.694325" lon="-73.844856"/>
    <rtept lat="42.694427" lon="-73.845092"/>
    <rtept lat="42.694553" lon="-73.845128"/>
    <rtept lat="42.694571" lon="-73.845022"/>
    <rtept lat="42.69445" lon="-73.844982"/>
    <rtept lat="42.694429" lon="-73.844885"/>
    <rtept lat="42.694675" lon="-73.844943"/>
    <rtept lat="42.694182" lon="-73.848571"/>
    <rtept lat="42.694259" lon="-73.848592"/>
    <rtept lat="42.69476" lon="-73.844976"/>
    <rtept lat="42.694838" lon="-73.844995"/>
    <rtept lat="42.69436" lon="-73.848615"/>
    <rtept lat="42.694466" lon="-73.848658"/>
    <rtept lat="42.694943" lon="-73.845017"/>
    <rtept lat="42.69506" lon="-73.845074"/>
    <rtept lat="42.694622" lon="-73.848688"/>
    <rtept lat="42.694769" lon="-73.848734"/>
    <rtept lat="42.695171" lon="-73.845109"/>
    <rtept lat="42.695336" lon="-73.845196"/>
    <rtept lat="42.694914" lon="-73.8488"/>
    <rtept lat="42.695083" lon="-73.848777"/>
    <rtept lat="42.695485" lon="-73.845228"/>
    <rtept lat="42.695683" lon="-73.845283"/>
    <rtept lat="42.695312" lon="-73.848772"/>
    <rtept lat="42.695538" lon="-73.848749"/>
    <rtept lat="42.695924" lon="-73.845351"/>
    <rtept lat="42.696142" lon="-73.845449"/>
    <rtept lat="42.695762" lon="-73.848783"/>
    <rtept lat="42.69599" lon="-73.848834"/>
    <rtept lat="42.69634" lon="-73.845545"/>
    <rtept lat="42.696534" lon="-73.8457"/>
    <rtept lat="42.696186" lon="-73.848909"/>
  </rte>
</gpx>